STARLINK-30494          
1 57970U 23151G   26068.36049035 -.00001272  00000+0 -35691-4 0  9993
2 57970  43.0027 192.4566 0001155 241.5536 118.5200 15.28417441137406
STARLINK-31815          
1 59801U 24093V   26068.42716813  .00000738  00000+0  36342-4 0  9994
2 59801  43.0003 210.5145 0001358 281.4002  78.6697 15.27576930102659
