[{"OBJECT_NAME":"STARLINK-30494","OBJECT_ID":"2023-151G","EPOCH":"2026-03-09T08:39:06.366240","MEAN_MOTION":15.28417441,"ECCENTRICITY":0.00011553,"INCLINATION":43.0027,"RA_OF_ASC_NODE":192.4566,"ARG_OF_PERICENTER":241.5536,"MEAN_ANOMALY":118.52,"EPHEMERIS_TYPE":0,"CLASSIFICATION_TYPE":"U","NORAD_CAT_ID":57970,"ELEMENT_SET_NO":999,"REV_AT_EPOCH":13740,"BSTAR":-3.569111e-5,"MEAN_MOTION_DOT":-1.272e-5,"MEAN_MOTION_DDOT":0},{"OBJECT_NAME":"STARLINK-31815","OBJECT_ID":"2024-093V","EPOCH":"2026-03-09T10:15:07.326432","MEAN_MOTION":15.2757693,"ECCENTRICITY":0.00013589,"INCLINATION":43.0003,"RA_OF_ASC_NODE":210.5145,"ARG_OF_PERICENTER":281.4002,"MEAN_ANOMALY":78.6697,"EPHEMERIS_TYPE":0,"CLASSIFICATION_TYPE":"U","NORAD_CAT_ID":59801,"ELEMENT_SET_NO":999,"REV_AT_EPOCH":10265,"BSTAR":3.6342236e-5,"MEAN_MOTION_DOT":7.38e-6,"MEAN_MOTION_DDOT":0}]
